[{"OBJECT_NAME":"STARLINK-3588","OBJECT_ID":"2022-022T","EPOCH":"2026-03-09T05:17:43.014336","MEAN_MOTION":15.08857613,"ECCENTRICITY":0.00015494,"INCLINATION":53.2198,"RA_OF_ASC_NODE":11.2242,"ARG_OF_PERICENTER":99.0191,"MEAN_ANOMALY":261.0976,"EPHEMERIS_TYPE":0,"CLASSIFICATION_TYPE":"U","NORAD_CAT_ID":51869,"ELEMENT_SET_NO":999,"REV_AT_EPOCH":22304,"BSTAR":0.00023470848,"MEAN_MOTION_DOT":3.451e-5,"MEAN_MOTION_DDOT":0},{"OBJECT_NAME":"COSMOS 1275 DEB","OBJECT_ID":"1981-053RH","EPOCH":"2026-03-08T19:02:02.535360","MEAN_MOTION":15.08606043,"ECCENTRICITY":0.00097404,"INCLINATION":83.3308,"RA_OF_ASC_NODE":196.5935,"ARG_OF_PERICENTER":282.896,"MEAN_ANOMALY":77.1182,"EPHEMERIS_TYPE":0,"CLASSIFICATION_TYPE":"U","NORAD_CAT_ID":42145,"ELEMENT_SET_NO":999,"REV_AT_EPOCH":64889,"BSTAR":0.0090120528,"MEAN_MOTION_DOT":0.00143721,"MEAN_MOTION_DDOT":0}]
